{
    "CCSDS_OMM_VERS": "3.0",
    "COMMENT": "GENERATED VIA SPACE-TRACK.ORG API",
    "CREATION_DATE": "2025-11-24T07:26:19",
    "ORIGINATOR": "18 SPCS",
    "OBJECT_NAME": "BEIDOU IGSO-7",
    "OBJECT_ID": "2018-057A",
    "CENTER_NAME": "EARTH",
    "REF_FRAME": "TEME",
    "TIME_SYSTEM": "UTC",
    "MEAN_ELEMENT_THEORY": "SGP4",
    "EPOCH": "2025-11-23T23:08:48.848928",
    "MEAN_MOTION": "1.00262951",
    "ECCENTRICITY": "0.00921140",
    "INCLINATION": "55.1722",
    "RA_OF_ASC_NODE": "164.8365",
    "ARG_OF_PERICENTER": "235.1825",
    "MEAN_ANOMALY": "122.2177",
    "EPHEMERIS_TYPE": "0",
    "CLASSIFICATION_TYPE": "U",
    "NORAD_CAT_ID": "43539",
    "ELEMENT_SET_NO": "999",
    "REV_AT_EPOCH": "2706",
    "BSTAR": "0.00000000000000",
    "MEAN_MOTION_DOT": "-0.00000051",
    "MEAN_MOTION_DDOT": "0.0000000000000",
    "SEMIMAJOR_AXIS": "42167.209",
    "PERIOD": "1436.223",
    "APOAPSIS": "36177.493",
    "PERIAPSIS": "35400.655",
    "OBJECT_TYPE": "PAYLOAD",
    "RCS_SIZE": "LARGE",
    "COUNTRY_CODE": "PRC",
    "LAUNCH_DATE": "2018-07-09",
    "SITE": "XSC",
    "DECAY_DATE": null,
    "FILE": "4896998",
    "GP_ID": "303367813",
    "TLE_LINE0": "0 BEIDOU IGSO-7",
    "TLE_LINE1": "1 43539U 18057A   25327.96445427 -.00000051  00000-0  00000+0 0  9991",
    "TLE_LINE2": "2 43539  55.1722 164.8365 0092114 235.1825 122.2177  1.00262951 27067"
}